DMSP 5D-3 F16 (USA 172) 
1 28054U 03048A   26161.59594042 -.00000010  00000+0  18414-4 0  9991
2 28054  98.9892 185.3805 0007427 157.3103 313.8660 14.14482576168550
METEOSAT-9 (MSG-2)      
1 28912U 05049B   26160.84991341  .00000137  00000+0  00000+0 0  9993
2 28912   9.3440  54.2378 0001663 349.5448 206.0776  1.00269219  6921
DMSP 5D-3 F17 (USA 191) 
1 29522U 06050A   26161.59354234  .00000013  00000+0  28783-4 0  9997
2 29522  98.7378 168.2985 0011306  76.2561 283.9870 14.14992135 11492
FENGYUN 3A              
1 32958U 08026A   26161.56283723  .00000054  00000+0  46024-4 0  9993
2 32958  98.6882 102.5200 0009312 141.1967 218.9879 14.19569818934466
GOES 14                 
1 35491U 09033A   26161.51139569 -.00000247  00000+0  00000+0 0  9994
2 35491   1.6718  83.1232 0001849   6.6396 138.8739  1.00113185  6520
DMSP 5D-3 F18 (USA 210) 
1 35951U 09057A   26161.56448123  .00000239  00000+0  14666-3 0  9992
2 35951  98.9035 142.3480 0009848 270.6239  89.3806 14.14893050858650
EWS-G2 (GOES 15)        
1 36411U 10008A   26161.62089904  .00000036  00000+0  00000+0 0  9995
2 36411   1.2587  82.9656 0005438  39.9333  63.2361  1.00275702 59577
COMS 1                  
1 36744U 10032A   26154.99142485 -.00000334  00000+0  00000+0 0  9999
2 36744   4.7750  75.5286 0001016   4.5847 297.3769  1.00270643 50953
FENGYUN 3B              
1 37214U 10059A   26161.66604619 -.00000008  00000+0  19415-4 0  9998
2 37214  98.9624 207.6531 0021505 202.7596 268.3796 14.14839772806501
SUOMI NPP               
1 37849U 11061A   26161.57387839  .00000059  00000+0  49156-4 0  9998
2 37849  98.7953 102.4951 0001899  21.8270 338.2987 14.19516020757506
METEOSAT-10 (MSG-3)     
1 38552U 12035B   26161.34000110  .00000011  00000+0  00000+0 0  9999
2 38552   4.6545  61.0471 0001506 332.8996 347.4002  1.00275881 50782
METOP-B                 
1 38771U 12049A   26161.57283689  .00000083  00000+0  57934-4 0  9998
2 38771  98.6506 213.2038 0002625  35.3149 324.8202 14.21430905712326
INSAT-3D                
1 39216U 13038B   26161.50818902 -.00000322  00000+0  00000+0 0  9991
2 39216   1.9078  82.6242 0000698 314.5960 174.1167  1.00272635 47018
FENGYUN 3C              
1 39260U 13052A   26161.61252347  .00000084  00000+0  63845-4 0  9998
2 39260  98.4976 135.7894 0015568  45.6030 314.6416 14.15753556657639
METEOR-M 2              
1 40069U 14037A   26161.59932620 -.00000038  00000+0  20517-5 0  9997
2 40069  98.5110 137.5710 0006972  60.2698 299.9173 14.21459460618386
HIMAWARI-8              
1 40267U 14060A   26161.51035569 -.00000258  00000+0  00000+0 0  9994
2 40267   0.0116 308.5204 0000771 158.1107 116.6315  1.00270181 42693
FENGYUN 2G              
1 40367U 14090A   26160.83345512 -.00000287  00000+0  00000+0 0  9996
2 40367   5.6193  72.9049 0003515 153.2834  71.6860  1.00276216 41926
METEOSAT-11 (MSG-4)     
1 40732U 15034A   26161.27051963  .00000081  00000+0  00000+0 0  9995
2 40732   3.1848  71.1496 0001721   7.0467 287.2978  1.00278178  7144
ELEKTRO-L 2             
1 41105U 15074A   26161.05176068 -.00000102  00000+0  00000+0 0  9999
2 41105   6.6749  70.6113 0000880 278.5236 273.4303  1.00271662 38437
SENTINEL-3A             
1 41335U 16011A   26161.62435609  .00000075  00000+0  48839-4 0  9993
2 41335  98.6249 229.1020 0001370 103.7435 256.3898 14.26738138537128
INSAT-3DR               
1 41752U 16054A   26161.56825800 -.00000059  00000+0  00000+0 0  9998
2 41752   0.0882  87.3235 0010517 186.7935 263.3666  1.00270370 35752
HIMAWARI-9              
1 41836U 16064A   26161.51035569 -.00000257  00000+0  00000+0 0  9992
2 41836   0.0329 154.0063 0000776 341.8543  87.5194  1.00271435 35145
GOES 16                 
1 41866U 16071A   26161.53304222 -.00000073  00000+0  00000+0 0  9996
2 41866   0.3228  85.5820 0000329 309.1216 311.4089  1.00270364 35036
FENGYUN 4A              
1 41882U 16077A   26161.64960422 -.00000340  00000+0  00000+0 0  9999
2 41882   2.3049  80.3624 0008426 151.5537  24.7334  1.00272581 34863
CYGFM05                 
1 41884U 16078A   26160.80367912  .00023758  00000+0  32575-3 0  9997
2 41884  34.9574 309.4711 0006816  74.5123 285.6354 15.56342667527605
CYGFM04                 
1 41885U 16078B   26161.50048119  .00027736  00000+0  31677-3 0  9993
2 41885  34.9326 272.8828 0005998 129.8861 230.2392 15.61140400527959
CYGFM02                 
1 41886U 16078C   26161.57767864  .00032270  00000+0  32815-3 0  9990
2 41886  34.9406 267.0951 0007017 131.6899 228.4429 15.64074895528136
CYGFM01                 
1 41887U 16078D   26161.11617237  .00025358  00000+0  33886-3 0  9997
2 41887  34.9405 308.5167 0006614  70.9828 289.1612 15.57023062527606
CYGFM08                 
1 41888U 16078E   26161.59974833  .00025422  00000+0  30717-3 0  9990
2 41888  34.9431 285.0634 0007809 111.3116 248.8443 15.59672771527941
CYGFM07                 
1 41890U 16078G   26161.43129647  .00029748  00000+0  35789-3 0  9990
2 41890  34.9447 274.5325 0006406 128.2062 231.9240 15.59776470527949
CYGFM03                 
1 41891U 16078H   26161.59427885  .00025359  00000+0  30548-3 0  9995
2 41891  34.9401 275.3870 0005911 115.9030 244.2305 15.59769189527940
